COSMOS 1892             
1 18421U 87088A   21207.57410753  .00000788  00000-0  37326-4 0  9999
2 18421  82.4983 233.4188 0016526 101.3378 258.9714 15.17724632845836
SL-14 R/B               
1 18749U 88001B   21207.37326685  .00000095  00000-0  86329-5 0  9995
2 18749  82.5159 339.0988 0019906  50.2880 337.0236 14.83267457791748
COSMOS 1933             
1 18958U 88020A   21207.41659135  .00000327  00000-0  21594-4 0  9992
2 18958  82.5289  95.4526 0010384 209.6511 150.4128 15.03958648795795
SL-3 R/B                
1 19046U 88032B   21207.55307670  .00000226  00000-0  21018-4 0  9992
2 19046  97.3886 216.2921 0034698 269.4904  90.2346 15.02978906797947
SL-16 R/B               
1 19120U 88039B   21207.61545841  .00000084  00000-0  62893-4 0  9991
2 19120  71.0152  34.5032 0020438  43.2049 317.0675 14.19223551718993
COSMOS 1953             
1 19210U 88050A   21207.51731032  .00000172  00000-0  96800-5 0  9996
2 19210  82.5160  17.5159 0013763 171.0263 189.1213 15.06320730782486
SL-8 R/B                
1 19257U 88053B   21207.57088392 -.00000002  00000-0  80961-5 0  9994
2 19257  74.0503 337.8878 0020962 219.2220 218.6565 14.37525973734076
COSMOS 1975             
1 19573U 88093A   21207.45433030  .00000225  00000-0  13697-4 0  9996
2 19573  82.5216 332.7671 0013258 219.7920 140.2336 15.05222077764231
SL-14 R/B               
1 19574U 88093B   21207.37237807  .00000094  00000-0  85657-5 0  9992
2 19574  82.5322 182.3314 0020815 206.3924 306.0237 14.83378073750742
SL-16 R/B               
1 19650U 88102B   21207.40582959 -.00000166  00000-0 -60293-4 0  9993
2 19650  70.9999 100.4776 0012464  54.2362 305.9918 14.15804894688056
INTERCOSMOS 24          
1 20261U 89080A   21207.46987739 -.00000049  00000-0 -16797-4 0  9990
2 20261  82.6069 118.8302 1201570 235.4916 112.6968 12.56217311454727
SL-14 R/B               
1 20262U 89080C   21207.40315952  .00000103  00000-0  21303-4 0  9995
2 20262  82.5939 175.1801 1237960  76.0824 297.4576 12.48973852449419
DELTA 2 R/B(1)          
1 20303U 89085B   21207.57090546  .00004789  00000-0  14628-3 0  9998
2 20303  35.6427 348.1878 0089863 174.9249 185.2407 15.29482209730465
DELTA 1 R/B             
1 20323U 89089B   21207.50212724  .00000043  00000-0  20216-4 0  9991
2 20323  97.1224 295.7402 0072661  41.1243 319.5398 14.48410295651359
ARIANE 40 R/B           
1 20443U 90005H   21207.46964925  .00000045  00000-0  29266-4 0  9992
2 20443  98.5267 273.4460 0009790 213.0315 147.0261 14.38135723650186
DELTA 2 R/B(1)          
1 20453U 90008B   21207.61467883  .00002834  00000-0  15812-3 0  9993
2 20453  35.6246  31.1936 0275640  81.4080 281.7761 14.86658974671352
COSMOS 2058             
1 20465U 90010A   21207.54164328  .00000258  00000-0  19419-4 0  9995
2 20465  82.4875 244.4383 0013759 279.8593  80.1076 14.98242102688826
SL-14 R/B               
1 20466U 90010B   21207.59866546  .00000087  00000-0  79761-5 0  9999
2 20466  82.5016  48.5453 0022069  89.8935 270.4808 14.81431159678560
SL-14 R/B               
1 20511U 90018B   21207.47641750  .00000082  00000-0  77578-5 0  9992
2 20511  82.5241 356.8432 0016259 229.5927 188.8687 14.80085469672874
HST                     
1 20580U 90037B   21207.59958228  .00000622  00000-0  26608-4 0  9990
2 20580  28.4690 166.0517 0002916 123.0705  40.3811 15.09689550516937
SL-16 R/B               
1 20625U 90046B   21207.53834460 -.00000027  00000-0  10735-4 0  9999
2 20625  70.9980 240.0295 0015138 339.4247  20.6264 14.14674846609765
COSMOS 2084             
1 20663U 90055A   21207.48322384  .00000058  00000-0  23642-4 0  9996
2 20663  62.7934 258.9773 0076064  12.3830 347.9109 14.92273373683642
SL-6 R/B(2)             
1 20666U 90055D   21207.33460758  .00000243  00000-0  39401-4 0  9997
2 20666  62.7837 174.8771 0103125  39.1772 321.6728 14.92523977685570
SL-8 R/B                
1 20775U 90078B   21207.55569650  .00003113  00000-0  14842-3 0  9998
2 20775  82.9239 252.9815 0566760  21.5243 340.8770 14.36113836563699
SL-8 R/B                
1 21088U 91006B   21207.62488383  .00000068  00000-0  52529-4 0  9990
2 21088  82.9443 344.7198 0023937  80.4667 290.4344 13.77174049531842
OKEAN-3                 
1 21397U 91039A   21207.57859825  .00000332  00000-0  29296-4 0  9995
2 21397  82.5230 152.5109 0016102 256.2191 103.7237 14.93129233612541
COSMOS 2151             
1 21422U 91042A   21207.54312546  .00000191  00000-0  16185-4 0  9995
2 21422  82.4993 258.1810 0013186 328.5853  31.4577 14.92276224611099
SL-14 R/B               
1 21423U 91042B   21207.47877750  .00000073  00000-0  65960-5 0  9996
2 21423  82.4948 359.2819 0018073  20.4851 339.7082 14.79834937603416
ERS-1                   
1 21574U 91050A   21207.46731588  .00000036  00000-0  26630-4 0  9998
2 21574  98.6497 168.2206 0033185 164.0416 196.1823 14.37806420573179
ARIANE 40 R/B           
1 21610U 91050F   21207.46794067  .00000044  00000-0  27085-4 0  9994
2 21610  98.4217 277.6309 0004363 118.3373 252.2859 14.40957037575885
INTERCOSMOS 25          
1 21819U 91086A   21207.53876812  .00000301  00000-0  53298-4 0  9992
2 21819  82.5786 244.1254 1517117 130.8005 243.5010 12.05265026292963
SL-8 R/B                
1 21876U 92008B   21207.62657921  .00000073  00000-0  59151-4 0  9998
2 21876  82.9257  82.0208 0035035 163.3934 256.5173 13.75682693477449
SL-8 R/B                
1 21938U 92020B   21207.46211757  .00000056  00000-0  42779-4 0  9995
2 21938  82.9324 326.6165 0028412 328.6500  99.8530 13.75291357469201
COSMOS 2219             
1 22219U 92076A   21207.53931157 -.00000161  00000-0 -60027-4 0  9995
2 22219  71.0598 303.5721 0020388 258.3960 101.4873 14.13656925479919
SL-16 R/B               
1 22220U 92076B   21207.60717994  .00000165  00000-0  10691-3 0  9999
2 22220  71.0003 140.8094 0011818 155.4056  17.4753 14.16471033482902
COSMOS 2221             
1 22236U 92080A   21207.37202586  .00000265  00000-0  26034-4 0  9991
2 22236  82.5070  81.9586 0018060  63.1513 297.1549 14.88076860529337
SL-16 R/B               
1 22285U 92093B   21207.57620820  .00000016  00000-0  32875-4 0  9990
2 22285  71.0231 304.6932 0004904 333.0598  27.0270 14.15066142474474
COSMOS 2228             
1 22286U 92094A   21207.60071245  .00000260  00000-0  25264-4 0  9992
2 22286  82.5189  38.4567 0021175 174.5065 185.6389 14.88301243524557
SL-16 R/B               
1 22566U 93016B   21207.27281998 -.00000001  00000-0  23952-4 0  9995
2 22566  71.0068 158.0902 0010105 359.3473   0.7635 14.14970620463458
COSMOS 2242             
1 22626U 93024A   21207.55128284  .00000255  00000-0  24871-4 0  9991
2 22626  82.5203  66.8029 0018914 174.3618 185.7817 14.88151641529253
SL-16 R/B               
1 22803U 93059B   21207.59383302  .00000126  00000-0  86891-4 0  9991
2 22803  70.9915 327.5647 0019411 261.6098  98.2825 14.16838245440543
ARIANE 40 R/B           
1 22830U 93061H   21207.59443046  .00000010  00000-0  20558-4 0  9996
2 22830  98.7111 265.2745 0010341 211.4633 148.5932 14.31486518452648
COSMOS 2278             
1 23087U 94023A   21207.45252331  .00000221  00000-0  14163-3 0  9998
2 23087  71.0552 103.2130 0006992  82.3330 277.8586 14.13836175406290
SL-16 R/B               
1 23088U 94023B   21207.56937496  .00000256  00000-0  15756-3 0  9990
2 23088  71.0005  12.9033 0004363 315.4075  44.6696 14.14690442407466
SL-16 R/B               
1 23343U 94074B   21207.60028043  .00000046  00000-0  13715-4 0  9995
2 23343  97.9434 261.6311 0005535 293.0097 200.9152 14.76891181438067
SL-16 R/B               
1 23405U 94077B   21207.49777252  .00000098  00000-0  74904-4 0  9991
2 23405  70.9842 300.8966 0004103 236.6709 123.4021 14.15244242377503
ERS-2                   
1 23560U 95021A   21207.59606744  .00001376  00000-0  60431-4 0  9991
2 23560  98.5446  63.1685 0002399 218.5436 141.5627 15.24066002403655
ARIANE 40+ R/B          
1 23561U 95021B   21207.59032969  .00000049  00000-0  31189-4 0  9998
2 23561  98.6719 257.7674 0007924 129.4607 351.7748 14.38037035376654
SL-16 R/B               
1 23705U 95058B   21207.48352473 -.00000200  00000-0 -78350-4 0  9993
2 23705  71.0232 121.2391 0012263 182.2573 177.8497 14.15152277329131
SL-16 R/B               
1 24298U 96051B   21207.25097871 -.00000182  00000-0 -72360-4 0  9992
2 24298  70.8279 139.1106 0013736 119.1762 241.0734 14.12431408283370
ORBVIEW 2 (SEASTAR)     
1 24883U 97037A   21207.16441943  .00000039  00000-0  30036-4 0  9993
2 24883  98.6468 325.1999 0002399  22.3955 337.7334 14.33624797266555
SL-16 R/B               
1 25400U 98043G   21207.10895681 -.00000012  00000-0  13599-4 0  9990
2 25400  98.6405 142.3889 0008905 235.7008 124.3329 14.25479424198528
SL-16 R/B               
1 25407U 98045B   21207.25184691  .00000243  00000-0  14800-3 0  9997
2 25407  71.0116 128.9535 0005469  73.4374 286.7349 14.15839411188239
ISS (ZARYA)             
1 25544U 98067A   21207.71492149  .00001345  00000-0  32680-4 0  9995
2 25544  51.6436 147.2575 0001225 203.8873 226.4971 15.48865835294727
CZ-4B R/B               
1 25732U 99025C   21207.60619769 -.00000013  00000-0  15601-4 0  9992
2 25732  98.8997 244.1457 0038103 136.9415 335.5416 14.17696655149081
OKEAN-O                 
1 25860U 99039A   21207.55935161  .00000083  00000-0  19496-4 0  9992
2 25860  98.1804 238.8382 0001621  71.6045 288.5341 14.76748465185153
SL-16 R/B               
1 25861U 99039B   21207.61276671  .00000054  00000-0  14890-4 0  9995
2 25861  98.2030 223.7393 0014463 302.7509 168.7440 14.78652480187347
DELTA 2 R/B             
1 25876U 99041E   21207.33347813  .00000110  00000-0  60823-4 0  9990
2 25876  51.7625 155.7639 0531658  82.1449 283.9465 14.04590209125388
HELIOS 1B               
1 25977U 99064A   21207.50620549  .00000050  00000-0  13354-4 0  9996
2 25977  98.3189  23.5652 0002489 105.9108 254.2379 14.82569893434985
